{
  "norad_id": 58232,
  "name": "STARLINK-30880",
  "history": [
    {
      "epoch": "2026-03-28T14:33:33.658848",
      "apogee_km": 486.48181215242766,
      "perigee_km": 484.49136131227533,
      "latitude_deg": -31.075859014518144,
      "longitude_deg": 61.437398720066994,
      "semi_major_axis_km": 6863.623586732351,
      "eccentricity": 0.000145,
      "inclination_deg": 43.0026,
      "raan_deg": 177.888,
      "arg_perigee_deg": 274.7722,
      "mean_anomaly_deg": 85.2963,
      "mean_motion_rev_day": 15.26766334
    }
  ]
}